NORAD_CAT_ID,OBJECT_NAME,OBJECT_TYPE,EPOCH,MEAN_MOTION,ECCENTRICITY,INCLINATION,RA_OF_ASC_NODE,ARG_OF_PERICENTER,MEAN_ANOMALY,BSTAR,MEAN_MOTION_DOT,MEAN_MOTION_DDOT,TLE_LINE0,TLE_LINE1,TLE_LINE2,SEMIMAJOR_AXIS,PERIOD,APOGEE,PERIGEE,DECAYED
53748.0,STARLINK-4669,PAYLOAD,2023-10-11 15:23:28,15.08844304,0.0001593,53.2172,254.9757,87.871,272.2464,3.7136e-05,3.03e-06,0.0,0 STARLINK-4669,1 53748U 22107BA  23284.64129675  .00000303  00000-0  37136-4 0  9998,2 53748  53.2172 254.9757 0001593  87.8710 272.2464 15.08844304 60951,6917.867,95.437,540.834,538.63,0.0
53748.0,STARLINK-4669,PAYLOAD,2023-10-12 04:06:33,15.08839676,0.0001399,53.216,252.6002,92.1112,268.004,5.6193e-05,6.06e-06,0.0,0 STARLINK-4669,1 53748U 22107BA  23285.17122087  .00000606  00000-0  56193-4 0  9997,2 53748  53.2160 252.6002 0001399  92.1112 268.0040 15.08839676 61034,6917.881,95.438,540.714,538.779,0.0
53748.0,STARLINK-4669,PAYLOAD,2023-10-12 07:17:19,15.08843517,0.0001479,53.2166,252.0051,91.1095,269.0067,0.00012463,1.696e-05,0.0,0 STARLINK-4669,1 53748U 22107BA  23285.30369948  .00001696  00000-0  12463-3 0  9992,2 53748  53.2166 252.0051 0001479  91.1095 269.0067 15.08843517 61833,6917.87,95.437,540.758,538.711,0.0
53748.0,STARLINK-4669,PAYLOAD,2023-10-13 07:08:06,15.08849921,0.0001551,53.2174,247.5403,100.9443,259.1724,0.00020294,2.944e-05,0.0,0 STARLINK-4669,1 53748U 22107BA  23286.29729773  .00002944  00000-0  20294-3 0  9995,2 53748  53.2174 247.5403 0001551 100.9443 259.1724 15.08849921 61205,6917.85,95.437,540.788,538.642,0.0
53748.0,STARLINK-4669,PAYLOAD,2023-10-13 15:05:02,15.08846664,0.0001715,53.2176,246.0526,106.0812,254.0369,0.00016546,2.347e-05,0.0,0 STARLINK-4669,1 53748U 22107BA  23286.62849919  .00002347  00000-0  16546-3 0  9999,2 53748  53.2176 246.0526 0001715 106.0812 254.0369 15.08846664 62038,6917.86,95.437,540.911,538.539,0.0
53748.0,STARLINK-4669,PAYLOAD,2023-10-14 06:58:52,15.08862912,0.0001636,53.2175,243.0796,105.7238,254.3934,0.00041932,6.396e-05,0.0,0 STARLINK-4669,1 53748U 22107BA  23287.29088867  .00006396  00000-0  41932-3 0  9995,2 53748  53.2175 243.0796 0001636 105.7238 254.3934 15.08862912 62139,6917.81,95.436,540.807,538.544,0.0
53748.0,STARLINK-4669,PAYLOAD,2023-10-14 21:17:22,15.08834444,0.0001647,53.218,240.4047,103.1924,256.9252,-0.00018465,-3.225e-05,0.0,0 STARLINK-4669,1 53748U 22107BA  23287.88706109 -.00003225  00000-0 -18465-3 0  9991,2 53748  53.2180 240.4047 0001647 103.1924 256.9252 15.08834444 61444,6917.897,95.438,540.902,538.623,0.0
53748.0,STARLINK-4669,PAYLOAD,2023-10-15 06:49:41,15.08831379,0.0001479,53.2176,238.6191,98.3234,261.7926,-0.0001102,-2.041e-05,0.0,0 STARLINK-4669,1 53748U 22107BA  23288.28450524 -.00002041  00000-0 -11020-3 0  9998,2 53748  53.2176 238.6191 0001479  98.3234 261.7926 15.08831379 62289,6917.907,95.438,540.795,538.749,0.0
53748.0,STARLINK-4669,PAYLOAD,2023-10-16 03:29:41,15.08851748,0.0001316,53.2175,234.7559,88.5455,271.5688,0.00040368,6.145e-05,0.0,0 STARLINK-4669,1 53748U 22107BA  23289.14562143  .00006145  00000-0  40368-3 0  9999,2 53748  53.2175 234.7559 0001316  88.5455 271.5688 15.08851748 61633,6917.844,95.437,540.62,538.799,0.0
53748.0,STARLINK-4669,PAYLOAD,2023-10-17 12:52:47,15.08838467,0.0001087,53.2164,228.5095,73.8831,286.2281,6.004e-05,6.68e-06,0.0,0 STARLINK-4669,1 53748U 22107BA  23290.53666565  .00000668  00000-0  60040-4 0  9991,2 53748  53.2164 228.5095 0001087  73.8831 286.2281 15.08838467 62622,6917.885,95.438,540.502,538.998,0.0
53748.0,STARLINK-4669,PAYLOAD,2023-10-18 00:00:30,15.0883174,0.0001226,53.2161,226.4287,88.2797,271.8336,1.9399e-05,2.1e-07,0.0,0 STARLINK-4669,1 53748U 22107BA  23291.00034987  .00000021  00000-0  19399-4 0  9995,2 53748  53.2161 226.4287 0001226  88.2797 271.8336 15.08831740 62690,6917.906,95.438,540.619,538.923,0.0
53748.0,STARLINK-4669,PAYLOAD,2023-10-18 04:46:38,15.08850273,0.0001252,53.2168,225.5354,97.3173,262.7962,4.0724e-05,3.6e-06,0.0,0 STARLINK-4669,1 53748U 22107BA  23291.19905888  .00000360  00000-0  40724-4 0  9994,2 53748  53.2168 225.5354 0001252  97.3173 262.7962 15.08850273 61943,6917.849,95.437,540.58,538.848,0.0
53748.0,STARLINK-4669,PAYLOAD,2023-10-19 04:37:26,15.08845547,0.0001599,53.2185,221.0753,91.7947,268.3228,0.00021074,3.068e-05,0.0,0 STARLINK-4669,1 53748U 22107BA  23292.19266461  .00003068  00000-0  21074-3 0  9996,2 53748  53.2185 221.0753 0001599  91.7947 268.3228 15.08845547 62099,6917.863,95.437,540.835,538.622,0.0
53748.0,STARLINK-4669,PAYLOAD,2023-10-20 04:28:12,15.08857776,0.0001511,53.2179,216.6164,93.7295,266.387,0.00023836,3.509e-05,0.0,0 STARLINK-4669,1 53748U 22107BA  23293.18625690  .00003509  00000-0  23836-3 0  9997,2 53748  53.2179 216.6164 0001511  93.7295 266.3870 15.08857776 63022,6917.826,95.436,540.736,538.646,0.0
53748.0,STARLINK-4669,PAYLOAD,2023-10-21 01:08:14,15.08834096,0.0001595,53.2193,212.7499,91.0805,269.0369,-1.2969e-05,-4.94e-06,0.0,0 STARLINK-4669,1 53748U 22107BA  23294.04739502 -.00000494  00000-0 -12969-4 0  9999,2 53748  53.2193 212.7499 0001595  91.0805 269.0369 15.08834096 62376,6917.898,95.438,540.867,538.66,0.0
53748.0,STARLINK-4669,PAYLOAD,2023-10-21 12:15:56,15.08839729,0.0001666,53.2183,210.6692,106.9067,253.2108,6.1734e-06,-1.9e-06,0.0,0 STARLINK-4669,1 53748U 22107BA  23294.51106818 -.00000190  00000-0  61734-5 0  9996,2 53748  53.2183 210.6692 0001666 106.9067 253.2108 15.08839729 62444,6917.881,95.438,540.899,538.594,0.0
53748.0,STARLINK-4669,PAYLOAD,2023-10-21 21:48:14,15.0884385,0.0001155,53.2178,208.889,75.2225,284.8895,0.00025935,3.843e-05,0.0,0 STARLINK-4669,1 53748U 22107BA  23294.90850540  .00003843  00000-0  25935-3 0  9995,2 53748  53.2178 208.8890 0001155  75.2225 284.8895 15.08843850 63280,6917.869,95.437,540.533,538.935,0.0
53748.0,STARLINK-4669,PAYLOAD,2023-10-22 00:59:00,15.08861496,0.000164,53.2184,208.2912,97.8026,262.3153,0.0002436,3.593e-05,0.0,0 STARLINK-4669,1 53748U 22107BA  23295.04097384  .00003593  00000-0  24360-3 0  9993,2 53748  53.2184 208.2912 0001640  97.8026 262.3153 15.08861496 62524,6917.815,95.436,540.814,538.545,0.0
53748.0,STARLINK-4669,PAYLOAD,2023-10-22 21:39:02,15.08833096,0.000137,53.2167,204.4284,90.1317,269.9832,-6.1835e-05,-1.272e-05,0.0,0 STARLINK-4669,1 53748U 22107BA  23295.90211441 -.00001272  00000-0 -61835-4 0  9993,2 53748  53.2167 204.4284 0001370  90.1317 269.9832 15.08833096 63437,6917.901,95.438,540.714,538.819,0.0
53748.0,STARLINK-4669,PAYLOAD,2023-10-23 00:49:49,15.08825655,0.0001403,53.2176,203.8322,83.2053,276.9098,-0.00010659,-1.983e-05,0.0,0 STARLINK-4669,1 53748U 22107BA  23296.03459901 -.00001983  00000-0 -10659-3 0  9999,2 53748  53.2176 203.8322 0001403  83.2053 276.9098 15.08825655 62679,6917.924,95.438,540.76,538.819,0.0
53748.0,STARLINK-4669,PAYLOAD,2023-10-23 21:29:49,15.08839225,0.0001379,53.2178,199.9664,82.0338,278.081,-2.7984e-05,-7.33e-06,0.0,0 STARLINK-4669,1 53748U 22107BA  23296.89571276 -.00000733  00000-0 -27984-4 0  9995,2 53748  53.2178 199.9664 0001379  82.0338 278.0810 15.08839225 63584,6917.883,95.438,540.702,538.794,0.0
53748.0,STARLINK-4669,PAYLOAD,2023-10-24 03:51:21,15.08854132,0.0001426,53.217,198.7774,81.3494,278.766,0.00011136,1.485e-05,0.0,0 STARLINK-4669,1 53748U 22107BA  23297.16066340  .00001485  00000-0  11136-3 0  9991,2 53748  53.2170 198.7774 0001426  81.3494 278.7660 15.08854132 62845,6917.837,95.437,540.689,538.716,0.0
53748.0,STARLINK-4669,PAYLOAD,2023-10-24 10:12:54,15.08844554,0.0001443,53.217,197.5849,72.2995,287.8154,5.1103e-05,5.26e-06,0.0,0 STARLINK-4669,1 53748U 22107BA  23297.42562738  .00000526  00000-0  51103-4 0  9996,2 53748  53.2170 197.5849 0001443  72.2995 287.8154 15.08844554 62889,6917.866,95.437,540.73,538.733,0.0
53748.0,STARLINK-4669,PAYLOAD,2023-10-25 21:11:24,15.08844551,0.000136,53.2177,191.0479,87.9465,272.1683,-4.0886e-05,-9.39e-06,0.0,0 STARLINK-4669,1 53748U 22107BA  23298.88291792 -.00000939  00000-0 -40886-4 0  9992,2 53748  53.2177 191.0479 0001360  87.9465 272.1683 15.08844551 63104,6917.866,95.437,540.672,538.791,0.0
53748.0,STARLINK-4669,PAYLOAD,2023-10-25 22:46:47,15.0883339,0.0001416,53.2171,190.7493,88.4211,271.6943,0.00012236,1.66e-05,0.0,0 STARLINK-4669,1 53748U 22107BA  23298.94916037  .00001660  00000-0  12236-3 0  9992,2 53748  53.2171 190.7493 0001416  88.4211 271.6943 15.08833390 63895,6917.901,95.438,540.745,538.786,0.0
53748.0,STARLINK-4669,PAYLOAD,2023-10-26 03:32:56,15.08837505,0.0001484,53.2176,189.8567,84.721,275.3951,0.00018997,2.736e-05,0.0,0 STARLINK-4669,1 53748U 22107BA  23299.14787713  .00002736  00000-0  18997-3 0  9997,2 53748  53.2176 189.8567 0001484  84.7210 275.3951 15.08837505 63920,6917.888,95.438,540.78,538.726,0.0
53748.0,STARLINK-4669,PAYLOAD,2023-10-26 22:37:33,15.08850367,0.0001473,53.2176,186.2874,82.6281,277.4878,8.1203e-05,1.005e-05,0.0,0 STARLINK-4669,1 53748U 22107BA  23299.94274961  .00001005  00000-0  81203-4 0  9990,2 53748  53.2176 186.2874 0001473  82.6281 277.4878 15.08850367 64041,6917.849,95.437,540.733,538.695,0.0
53748.0,STARLINK-4669,PAYLOAD,2023-10-27 01:48:19,15.08858679,0.0001559,53.2182,185.6919,82.9876,277.1294,0.00015861,2.238e-05,0.0,0 STARLINK-4669,1 53748U 22107BA  23300.07522177  .00002238  00000-0  15861-3 0  9997,2 53748  53.2182 185.6919 0001559  82.9876 277.1294 15.08858679 63287,6917.823,95.436,540.767,538.61,0.0
53748.0,STARLINK-4669,PAYLOAD,2023-10-27 09:45:15,15.08842694,0.0001437,53.2171,184.2078,86.9525,273.1632,7.53e-05,9.11e-06,0.0,0 STARLINK-4669,1 53748U 22107BA  23300.40643026  .00000911  00000-0  75300-4 0  9992,2 53748  53.2171 184.2078 0001437  86.9525 273.1632 15.08842694 63334,6917.872,95.437,540.731,538.743,0.0
53748.0,STARLINK-4669,PAYLOAD,2023-10-27 22:28:20,15.0884134,0.0001413,53.2169,181.8277,95.3301,264.7853,4.0422e-05,3.55e-06,0.0,0 STARLINK-4669,1 53748U 22107BA  23300.93635206  .00000355  00000-0  40422-4 0  9990,2 53748  53.2169 181.8277 0001413  95.3301 264.7853 15.08841340 64198,6917.876,95.437,540.719,538.764,0.0
